{
    "CCSDS_OMM_VERS": "3.0",
    "COMMENT": "GENERATED VIA SPACE-TRACK.ORG API",
    "CREATION_DATE": "2025-11-22T18:56:57",
    "ORIGINATOR": "18 SPCS",
    "OBJECT_NAME": "COSMOS 2459 (GLONASS)",
    "OBJECT_ID": "2010-007A",
    "CENTER_NAME": "EARTH",
    "REF_FRAME": "TEME",
    "TIME_SYSTEM": "UTC",
    "MEAN_ELEMENT_THEORY": "SGP4",
    "EPOCH": "2025-11-21T19:56:17.017728",
    "MEAN_MOTION": "2.13116900",
    "ECCENTRICITY": "0.00259373",
    "INCLINATION": "65.5612",
    "RA_OF_ASC_NODE": "321.5899",
    "ARG_OF_PERICENTER": "342.4383",
    "MEAN_ANOMALY": "194.9424",
    "EPHEMERIS_TYPE": "0",
    "CLASSIFICATION_TYPE": "U",
    "NORAD_CAT_ID": "36400",
    "ELEMENT_SET_NO": "999",
    "REV_AT_EPOCH": "12240",
    "BSTAR": "0.00000000000000",
    "MEAN_MOTION_DOT": "-0.00000040",
    "MEAN_MOTION_DDOT": "0.0000000000000",
    "SEMIMAJOR_AXIS": "25506.835",
    "PERIOD": "675.686",
    "APOAPSIS": "19194.858",
    "PERIAPSIS": "19062.543",
    "OBJECT_TYPE": "PAYLOAD",
    "RCS_SIZE": "LARGE",
    "COUNTRY_CODE": "CIS",
    "LAUNCH_DATE": "2010-03-01",
    "SITE": "TTMTR",
    "DECAY_DATE": null,
    "FILE": "4894246",
    "GP_ID": "303250051",
    "TLE_LINE0": "0 COSMOS 2459 (GLONASS)",
    "TLE_LINE1": "1 36400U 10007A   25325.83075252 -.00000040  00000-0  00000-0 0  9995",
    "TLE_LINE2": "2 36400  65.5612 321.5899 0025937 342.4383 194.9424  2.13116900122405"
}